STARLINK-2227           
1 48575U 21041Y   26068.34781475  .00000039  00000+0  13454-4 0  9990
2 48575  53.1623  89.8181 0001546 103.9090 256.2083 15.30195716265775
JINJUSAT-1B             
1 63210U 25052A   26068.66363707  .00019955  00000+0  68430-3 0  9998
2 63210  97.4113 325.4613 0005550  82.1930 277.9941 15.30194857 54866
